COSMOS 2151             
1 21422U 91042A   25326.73924589  .00001679  00000+0  13412-3 0  9998
2 21422  82.4976 186.7744 0014007  63.1075 297.1578 14.99583346847167
SL-14 R/B               
1 21423U 91042B   25326.45527872  .00000515  00000+0  62376-4 0  9994
2 21423  82.4913 320.7474 0015779 230.2008 129.7818 14.81711947837199
ERS-1                   
1 21574U 91050A   25326.64690804  .00000333  00000+0  12121-3 0  9997
2 21574  98.7915 337.1984 0032417 158.1340 202.1239 14.39342521800331
ARIANE 40 R/B           
1 21610U 91050F   25326.74430852  .00000373  00000+0  12440-3 0  9992
2 21610  98.2192  17.8940 0003942  54.3078 305.8479 14.42788975803571
INTERCOSMOS 25          
1 21819U 91086A   25326.65542302  .00001153  00000+0  22572-3 0  9990
2 21819  82.6073  14.7190 1487698 347.7036   9.1130 12.11634036483729
SL-8 R/B                
1 21876U 92008B   25326.62121279  .00000126  00000+0  11297-3 0  9992
2 21876  82.9270 347.4123 0036068  74.5465  45.8839 13.75952614694696
SL-8 R/B                
1 21938U 92020B   25326.76307375  .00000084  00000+0  71633-4 0  9997
2 21938  82.9316 233.1499 0027767 235.1980 178.3466 13.75523309686432
USA 81                  
1 21949U 92023A   25326.63491903  .00000205  00000+0  68591-4 0  9993
2 21949  85.0099 193.1695 0002346  68.4022 291.7420 14.32316700 79467
COSMOS 2219             
1 22219U 92076A   25326.77613863 -.00000154  00000+0 -55943-4 0  9990
2 22219  71.0608 241.5621 0018335 355.0915   5.0024 14.14067118703261
SL-16 R/B               
1 22220U 92076B   25326.67527500  .00000108  00000+0  77851-4 0  9992
2 22220  71.0011  53.7958 0015138 260.0935 205.3572 14.16835852706673
COSMOS 2221             
1 22236U 92080A   25326.61404428  .00001879  00000+0  16643-3 0  9998
2 22236  82.5059  21.5862 0014461 186.3149 173.7893 14.95650737764785
SL-16 R/B               
1 22285U 92093B   25326.74413977 -.00000106  00000+0 -30041-4 0  9992
2 22285  71.0218 228.7683 0002129 131.9418 228.1887 14.15428030698026
