CCSDS_OMM_VERS = 2.0
CREATION_DATE  = 
ORIGINATOR     = 

OBJECT_NAME    = COSMOS 2151
OBJECT_ID      = 1991-042A
CENTER_NAME    = EARTH
REF_FRAME      = TEME
TIME_SYSTEM    = UTC
MEAN_ELEMENT_THEORY = SGP/SGP4

EPOCH          = 2025-11-22T17:44:30.844896
MEAN_MOTION    = 14.99583346
ECCENTRICITY   = .0014007
INCLINATION    = 82.4976
RA_OF_ASC_NODE = 186.7744
ARG_OF_PERICENTER = 63.1075
MEAN_ANOMALY   = 297.1578

EPHEMERIS_TYPE = 0
CLASSIFICATION_TYPE = U
NORAD_CAT_ID   = 21422
ELEMENT_SET_NO = 999
REV_AT_EPOCH   = 84716
BSTAR          = .13412E-3
MEAN_MOTION_DOT = .1679E-4
MEAN_MOTION_DDOT = 0

CCSDS_OMM_VERS = 2.0
CREATION_DATE  = 
ORIGINATOR     = 

OBJECT_NAME    = SL-14 R/B
OBJECT_ID      = 1991-042B
CENTER_NAME    = EARTH
REF_FRAME      = TEME
TIME_SYSTEM    = UTC
MEAN_ELEMENT_THEORY = SGP/SGP4

EPOCH          = 2025-11-22T10:55:36.081408
MEAN_MOTION    = 14.81711947
ECCENTRICITY   = .00157799
INCLINATION    = 82.4913
RA_OF_ASC_NODE = 320.7474
ARG_OF_PERICENTER = 230.2008
MEAN_ANOMALY   = 129.7818

EPHEMERIS_TYPE = 0
CLASSIFICATION_TYPE = U
NORAD_CAT_ID   = 21423
ELEMENT_SET_NO = 999
REV_AT_EPOCH   = 83719
BSTAR          = .62375978E-4
MEAN_MOTION_DOT = .515E-5
MEAN_MOTION_DDOT = 0

CCSDS_OMM_VERS = 2.0
CREATION_DATE  = 
ORIGINATOR     = 

OBJECT_NAME    = ERS-1
OBJECT_ID      = 1991-050A
CENTER_NAME    = EARTH
REF_FRAME      = TEME
TIME_SYSTEM    = UTC
MEAN_ELEMENT_THEORY = SGP/SGP4

EPOCH          = 2025-11-22T15:31:32.854656
MEAN_MOTION    = 14.39342521
ECCENTRICITY   = .0032417
INCLINATION    = 98.7915
RA_OF_ASC_NODE = 337.1984
ARG_OF_PERICENTER = 158.1340
MEAN_ANOMALY   = 202.1239

EPHEMERIS_TYPE = 0
CLASSIFICATION_TYPE = U
NORAD_CAT_ID   = 21574
ELEMENT_SET_NO = 999
REV_AT_EPOCH   = 80033
BSTAR          = .12121E-3
MEAN_MOTION_DOT = .333E-5
MEAN_MOTION_DDOT = 0

CCSDS_OMM_VERS = 2.0
CREATION_DATE  = 
ORIGINATOR     = 

OBJECT_NAME    = ARIANE 40 R/B
OBJECT_ID      = 1991-050F
CENTER_NAME    = EARTH
REF_FRAME      = TEME
TIME_SYSTEM    = UTC
MEAN_ELEMENT_THEORY = SGP/SGP4

EPOCH          = 2025-11-22T17:51:48.256128
MEAN_MOTION    = 14.42788975
ECCENTRICITY   = .0003942
INCLINATION    = 98.2192
RA_OF_ASC_NODE = 17.8940
ARG_OF_PERICENTER = 54.3078
MEAN_ANOMALY   = 305.8479

EPHEMERIS_TYPE = 0
CLASSIFICATION_TYPE = U
NORAD_CAT_ID   = 21610
ELEMENT_SET_NO = 999
REV_AT_EPOCH   = 80357
BSTAR          = .1244E-3
MEAN_MOTION_DOT = .373E-5
MEAN_MOTION_DDOT = 0

CCSDS_OMM_VERS = 2.0
CREATION_DATE  = 
ORIGINATOR     = 

OBJECT_NAME    = INTERCOSMOS 25
OBJECT_ID      = 1991-086A
CENTER_NAME    = EARTH
REF_FRAME      = TEME
TIME_SYSTEM    = UTC
MEAN_ELEMENT_THEORY = SGP/SGP4

EPOCH          = 2025-11-22T15:43:48.548928
MEAN_MOTION    = 12.11634036
ECCENTRICITY   = .1487698
INCLINATION    = 82.6073
RA_OF_ASC_NODE = 14.7190
ARG_OF_PERICENTER = 347.7036
MEAN_ANOMALY   = 9.1130

EPHEMERIS_TYPE = 0
CLASSIFICATION_TYPE = U
NORAD_CAT_ID   = 21819
ELEMENT_SET_NO = 999
REV_AT_EPOCH   = 48372
BSTAR          = .22572E-3
MEAN_MOTION_DOT = .1153E-4
MEAN_MOTION_DDOT = 0

CCSDS_OMM_VERS = 2.0
CREATION_DATE  = 
ORIGINATOR     = 

OBJECT_NAME    = SL-8 R/B
OBJECT_ID      = 1992-008B
CENTER_NAME    = EARTH
REF_FRAME      = TEME
TIME_SYSTEM    = UTC
MEAN_ELEMENT_THEORY = SGP/SGP4

EPOCH          = 2025-11-22T14:54:32.785056
MEAN_MOTION    = 13.75952614
ECCENTRICITY   = .0036068
INCLINATION    = 82.9270
RA_OF_ASC_NODE = 347.4123
ARG_OF_PERICENTER = 74.5465
MEAN_ANOMALY   = 45.8839

EPHEMERIS_TYPE = 0
CLASSIFICATION_TYPE = U
NORAD_CAT_ID   = 21876
ELEMENT_SET_NO = 999
REV_AT_EPOCH   = 69469
BSTAR          = .11297E-3
MEAN_MOTION_DOT = .126E-5
MEAN_MOTION_DDOT = 0

CCSDS_OMM_VERS = 2.0
CREATION_DATE  = 
ORIGINATOR     = 

OBJECT_NAME    = SL-8 R/B
OBJECT_ID      = 1992-020B
CENTER_NAME    = EARTH
REF_FRAME      = TEME
TIME_SYSTEM    = UTC
MEAN_ELEMENT_THEORY = SGP/SGP4

EPOCH          = 2025-11-22T18:18:49.572000
MEAN_MOTION    = 13.75523309
ECCENTRICITY   = .0027767
INCLINATION    = 82.9316
RA_OF_ASC_NODE = 233.1499
ARG_OF_PERICENTER = 235.1980
MEAN_ANOMALY   = 178.3466

EPHEMERIS_TYPE = 0
CLASSIFICATION_TYPE = U
NORAD_CAT_ID   = 21938
ELEMENT_SET_NO = 999
REV_AT_EPOCH   = 68643
BSTAR          = .71633E-4
MEAN_MOTION_DOT = .84E-6
MEAN_MOTION_DDOT = 0

CCSDS_OMM_VERS = 2.0
CREATION_DATE  = 
ORIGINATOR     = 

OBJECT_NAME    = USA 81
OBJECT_ID      = 1992-023A
CENTER_NAME    = EARTH
REF_FRAME      = TEME
TIME_SYSTEM    = UTC
MEAN_ELEMENT_THEORY = SGP/SGP4

EPOCH          = 2025-11-22T15:14:17.004192
MEAN_MOTION    = 14.32316700
ECCENTRICITY   = .0002346
INCLINATION    = 85.0099
RA_OF_ASC_NODE = 193.1695
ARG_OF_PERICENTER = 68.4022
MEAN_ANOMALY   = 291.7420

EPHEMERIS_TYPE = 0
CLASSIFICATION_TYPE = U
NORAD_CAT_ID   = 21949
ELEMENT_SET_NO = 999
REV_AT_EPOCH   = 7946
BSTAR          = .68591E-4
MEAN_MOTION_DOT = .205E-5
MEAN_MOTION_DDOT = 0

CCSDS_OMM_VERS = 2.0
CREATION_DATE  = 
ORIGINATOR     = 

OBJECT_NAME    = COSMOS 2219
OBJECT_ID      = 1992-076A
CENTER_NAME    = EARTH
REF_FRAME      = TEME
TIME_SYSTEM    = UTC
MEAN_ELEMENT_THEORY = SGP/SGP4

EPOCH          = 2025-11-22T18:37:38.377632
MEAN_MOTION    = 14.14067118
ECCENTRICITY   = .0018335
INCLINATION    = 71.0608
RA_OF_ASC_NODE = 241.5621
ARG_OF_PERICENTER = 355.0915
MEAN_ANOMALY   = 5.0024

EPHEMERIS_TYPE = 0
CLASSIFICATION_TYPE = U
NORAD_CAT_ID   = 22219
ELEMENT_SET_NO = 999
REV_AT_EPOCH   = 70326
BSTAR          = -.55943E-4
MEAN_MOTION_DOT = -.154E-5
MEAN_MOTION_DDOT = 0

CCSDS_OMM_VERS = 2.0
CREATION_DATE  = 
ORIGINATOR     = 

OBJECT_NAME    = SL-16 R/B
OBJECT_ID      = 1992-076B
CENTER_NAME    = EARTH
REF_FRAME      = TEME
TIME_SYSTEM    = UTC
MEAN_ELEMENT_THEORY = SGP/SGP4

EPOCH          = 2025-11-22T16:12:23.760000
MEAN_MOTION    = 14.16835852
ECCENTRICITY   = .0015138
INCLINATION    = 71.0011
RA_OF_ASC_NODE = 53.7958
ARG_OF_PERICENTER = 260.0935
MEAN_ANOMALY   = 205.3572

EPHEMERIS_TYPE = 0
CLASSIFICATION_TYPE = U
NORAD_CAT_ID   = 22220
ELEMENT_SET_NO = 999
REV_AT_EPOCH   = 70667
BSTAR          = .77851E-4
MEAN_MOTION_DOT = .108E-5
MEAN_MOTION_DDOT = 0

CCSDS_OMM_VERS = 2.0
CREATION_DATE  = 
ORIGINATOR     = 

OBJECT_NAME    = COSMOS 2221
OBJECT_ID      = 1992-080A
CENTER_NAME    = EARTH
REF_FRAME      = TEME
TIME_SYSTEM    = UTC
MEAN_ELEMENT_THEORY = SGP/SGP4

EPOCH          = 2025-11-22T14:44:13.425792
MEAN_MOTION    = 14.95650737
ECCENTRICITY   = .0014461
INCLINATION    = 82.5059
RA_OF_ASC_NODE = 21.5862
ARG_OF_PERICENTER = 186.3149
MEAN_ANOMALY   = 173.7893

EPHEMERIS_TYPE = 0
CLASSIFICATION_TYPE = U
NORAD_CAT_ID   = 22236
ELEMENT_SET_NO = 999
REV_AT_EPOCH   = 76478
BSTAR          = .16643E-3
MEAN_MOTION_DOT = .1879E-4
MEAN_MOTION_DDOT = 0

CCSDS_OMM_VERS = 2.0
CREATION_DATE  = 
ORIGINATOR     = 

OBJECT_NAME    = SL-16 R/B
OBJECT_ID      = 1992-093B
CENTER_NAME    = EARTH
REF_FRAME      = TEME
TIME_SYSTEM    = UTC
MEAN_ELEMENT_THEORY = SGP/SGP4

EPOCH          = 2025-11-22T17:51:33.676128
MEAN_MOTION    = 14.15428030
ECCENTRICITY   = .0002129
INCLINATION    = 71.0218
RA_OF_ASC_NODE = 228.7683
ARG_OF_PERICENTER = 131.9418
MEAN_ANOMALY   = 228.1887

EPHEMERIS_TYPE = 0
CLASSIFICATION_TYPE = U
NORAD_CAT_ID   = 22285
ELEMENT_SET_NO = 999
REV_AT_EPOCH   = 69802
BSTAR          = -.30041E-4
MEAN_MOTION_DOT = -.106E-5
MEAN_MOTION_DDOT = 0

